[{"OBJECT_NAME":"PROTOMETHEE","OBJECT_ID":"2023-174BT","EPOCH":"2026-03-09T23:28:08.029344","MEAN_MOTION":15.30202663,"ECCENTRICITY":0.00088339,"INCLINATION":97.3826,"RA_OF_ASC_NODE":147.9552,"ARG_OF_PERICENTER":148.5993,"MEAN_ANOMALY":211.5776,"EPHEMERIS_TYPE":0,"CLASSIFICATION_TYPE":"U","NORAD_CAT_ID":58321,"ELEMENT_SET_NO":999,"REV_AT_EPOCH":12979,"BSTAR":0.00015715731,"MEAN_MOTION_DOT":4.52e-5,"MEAN_MOTION_DDOT":0},{"OBJECT_NAME":"STARLINK-35456","OBJECT_ID":"2025-223P","EPOCH":"2026-03-09T22:16:04.991520","MEAN_MOTION":15.30213807,"ECCENTRICITY":0.00012815,"INCLINATION":53.159,"RA_OF_ASC_NODE":292.9591,"ARG_OF_PERICENTER":93.6928,"MEAN_ANOMALY":266.422,"EPHEMERIS_TYPE":0,"CLASSIFICATION_TYPE":"U","NORAD_CAT_ID":65867,"ELEMENT_SET_NO":999,"REV_AT_EPOCH":2424,"BSTAR":0.00046642625,"MEAN_MOTION_DOT":0.00013486,"MEAN_MOTION_DDOT":0}]
